[{"OBJECT_NAME":"ONEWEB-0719","OBJECT_ID":"2023-004AR","EPOCH":"2026-03-09T22:36:02.951712","MEAN_MOTION":13.17649613,"ECCENTRICITY":0.00016764,"INCLINATION":87.9161,"RA_OF_ASC_NODE":25.5358,"ARG_OF_PERICENTER":86.7319,"MEAN_ANOMALY":273.4004,"EPHEMERIS_TYPE":0,"CLASSIFICATION_TYPE":"U","NORAD_CAT_ID":55179,"ELEMENT_SET_NO":999,"REV_AT_EPOCH":15451,"BSTAR":-0.00035974873,"MEAN_MOTION_DOT":-1.27e-6,"MEAN_MOTION_DDOT":0},{"OBJECT_NAME":"CZ-4C R\/B","OBJECT_ID":"2014-047D","EPOCH":"2026-03-09T15:34:42.518208","MEAN_MOTION":13.70349428,"ECCENTRICITY":0.05513629,"INCLINATION":63.4119,"RA_OF_ASC_NODE":171.3717,"ARG_OF_PERICENTER":0.1747,"MEAN_ANOMALY":359.9387,"EPHEMERIS_TYPE":0,"CLASSIFICATION_TYPE":"U","NORAD_CAT_ID":40112,"ELEMENT_SET_NO":999,"REV_AT_EPOCH":57916,"BSTAR":8.2165001e-5,"MEAN_MOTION_DOT":9.8e-7,"MEAN_MOTION_DDOT":0}]
